name,id,lat,lng,company_address
Alejandro José Suárez,1000000044,4.7265318,-74.1241311,Ac. 24 #86-49
Alejandro Torres,1000000047,4.5930228,-74.0736829,Ac. 24 #86-49
Ana María Rivera,1000000051,4.7153841,-74.1289298,Ac. 24 #86-49
Andrea Castro,1000000056,4.6182478,-74.0676022,Ac. 24 #86-49
Andrés Felipe Medina,1000000062,4.6440194,-74.0610118,Ac. 24 #86-49
Camila Díaz,1000000069,4.6726128,-74.1419712,Ac. 24 #86-49
Carlos Alberto Suárez,1000000077,4.5879506,-74.1563379,Ac. 24 #86-49
Carolina Isabel López,1000000086,4.6290444,-74.2120217,Ac. 24 #86-49
Cristian Camilo Marín,1000000096,4.7611044,-74.0043025,Ac. 24 #86-49
Daniel Ramírez,1000000107,4.6329794,-74.2035993,Ac. 24 #86-49
Daniela Alejandra Vega,1000000119,4.6516447,-74.1700081,Ac. 24 #86-49
David Fernando Gómez,1000000132,4.6457755,-74.0651617,Ac. 24 #86-49
Diego Alejandro Pérez,1000000146,4.6268619,-74.1746891,Ac. 24 #86-49
Elena Sofía Parra,1000000161,4.6125724,-74.1331417,Ac. 24 #86-49
Emilia Carolina Vargas,1000000177,4.5850605,-74.0769641,Ac. 24 #86-49
Esteban Camilo Castro,1000000194,4.7029158,-74.1227537,Ac. 24 #86-49
Fabián Andrés Acosta,1000000212,4.6407273,-74.0153339,Ac. 24 #86-49
Felipe Gutiérrez,1000000231,4.4625235,-74.1354251,Ac. 24 #86-49
Gabriel Esteban Rivas,1000000251,4.6125272,-74.0788591,Ac. 24 #86-49
Gabriela Ruiz,1000000272,4.6327587,-74.1999241,Ac. 24 #86-49
Isabella Herrera,1000000294,4.6715013,-74.1456917,Ac. 24 #86-49
Jorge Iván González,1000000317,4.7414807,-74.0359517,Ac. 24 #86-49
José Miguel Pinzón,1000000341,4.6445919,-74.0815656,Ac. 24 #86-49
Juan Carlos Orozco,1000000366,4.4622183,-74.0968887,Ac. 24 #86-49
Juan David Sánchez,1000000392,4.6563611,-74.1246755,Ac. 24 #86-49
Julieta Alejandra Soto,1000000419,4.6172477,-74.1351075,Ac. 24 #86-49
Laura Cristina Mora,1000000447,4.68217,-74.1657986,Ac. 24 #86-49
Laura Marcela Herrera,1000000476,4.68217,-74.1657986,Ac. 24 #86-49
Laura Mendoza,1000000506,4.5904916,-74.0706749,Ac. 24 #86-49
Luisa Fernanda García,1000000537,4.6436046,-74.0630208,Ac. 24 #86-49
Mariana Fernanda Ruiz,1000000569,4.6199787,-74.1999926,Ac. 24 #86-49
Mariana López,1000000602,4.6438859,-74.1568819,Ac. 24 #86-49
Mario Andrés Díaz,1000000636,4.6695391,-74.1173893,Ac. 24 #86-49
Mateo Vargas,1000000671,4.4572061,-74.0881834,Ac. 24 #86-49
Miguel Ángel Gil,1000000707,4.6504613,-74.1316314,Ac. 24 #86-49
Natalia Álvarez,1000000744,4.6427319,-74.1532495,Ac. 24 #86-49
Natalia Andrea Solano,1000000782,4.7217733,-74.1258984,Ac. 24 #86-49
Natalia Andrea Solano,1000000821,4.7093526,-74.1156665,Ac. 24 #86-49
Nicolás Pérez,1000000861,4.7186017,-74.1062629,Ac. 24 #86-49
Óscar David Duque,1000000902,4.6617296,-74.0588719,Ac. 24 #86-49
Paula Andrea Muñoz,1000000944,4.6464628,-74.0138562,Ac. 24 #86-49
Paula Viviana Londoño,1000000987,4.6082639,-74.0709567,Ac. 24 #86-49
Pedro Pablo Castro,1000001031,4.6009341,-74.0705201,Ac. 24 #86-49
Ricardo Andrés Rojas,1000001076,4.6035569,-74.1465061,Ac. 24 #86-49
Santiago Cárdenas,1000001122,4.6433488,-74.1881026,Ac. 24 #86-49
Santiago José López,1000001169,4.5860405,-74.1551801,Ac. 24 #86-49
Sara Valentina Herrera,1000001217,4.7390713,-74.0953105,Ac. 24 #86-49
Sebastián Morales,1000001266,4.6459535,-74.0061205,Ac. 24 #86-49
Sofía Alejandra Pinto,1000001316,4.6714413,-74.1069024,Ac. 24 #86-49
Sofía Gómez,1000001367,4.4671587,-74.1324923,Ac. 24 #86-49
Valentina Rojas,1000001419,4.6010325,-74.0812758,Ac. 24 #86-49
Valeria Castillo,1000001472,4.7205923,-74.1166197,Ac. 24 #86-49
Valeria Isabel Giraldo,1000001526,4.6968288,-74.0941422,Ac. 24 #86-49
Juan Camilo Pérez,1000001581,4.6126686,-74.1332066,Ac. 24 #86-49
María Fernanda Torres,1000001637,4.7145372,-74.1055519,Ac. 24 #86-49
Andrés Felipe Ramírez,1000001694,4.6274287,-74.1919637,Ac. 24 #86-49
Laura Sofía Castillo,1000001752,4.57793,-74.1373595,Ac. 24 #86-49
Carlos Alberto Jiménez,1000001811,4.6437229,-74.1311388,Ac. 24 #86-49
Ana Milena Rodríguez,1000001871,4.6517628,-74.1307778,Ac. 24 #86-49
Julián Andrés Castaño,1000001932,4.6262345,-74.0067581,Ac. 24 #86-49
Valentina Gómez,1000001994,4.4643188,-74.1499961,Ac. 24 #86-49
Santiago Restrepo,1000002057,4.6336475,-74.1065887,Ac. 24 #86-49
Paula Andrea Morales,1000002121,4.6821412,-74.1135123,Ac. 24 #86-49
Felipe Rincón,1000002186,4.4720423,-74.1241107,Ac. 24 #86-49
Daniela López,1000002252,4.6380022,-74.0764134,Ac. 24 #86-49
Camilo José Vargas,1000002319,4.6510103,-74.0639287,Ac. 24 #86-49
Sara Lucía Medina,1000002387,4.5026003,-74.0300122,Ac. 24 #86-49
Mateo Cárdenas,1000002456,4.7151531,-74.1292661,Ac. 24 #86-49
Carolina Arias,1000002526,4.6811191,-74.1588378,Ac. 24 #86-49
Sebastián Ospina,1000002597,4.6447737,-74.0065101,Ac. 24 #86-49
Natalia Torres,1000002669,4.5391679,-74.1516319,Ac. 24 #86-49
David Alejandro Muñoz,1000002742,4.6405781,-74.0638313,Ac. 24 #86-49
Isabella Romero,1000002816,4.7103943,-74.1391171,Ac. 24 #86-49
Cristian Camilo Rojas,1000002891,4.6475827,-74.1364549,Ac. 24 #86-49
Manuela Salazar,1000002967,4.5794035,-74.0891935,Ac. 24 #86-49
Nicolás Herrera,1000003044,4.4477436,-74.1245849,Ac. 24 #86-49
Juliana Ramírez,1000003122,4.6573279,-74.1249188,Ac. 24 #86-49
Jorge Luis Quintero,1000003201,4.7084348,-74.0960802,Ac. 24 #86-49
Angélica María Ruiz,1000003281,4.7556249,-74.0887805,Ac. 24 #86-49
Juan Sebastián Martínez,1000003362,4.6580596,-74.1191367,Ac. 24 #86-49
Diana Carolina Ortiz,1000003444,4.6370255,-74.1526368,Ac. 24 #86-49
Esteban Mejía,1000003527,4.7037153,-74.1213949,Ac. 24 #86-49
Catalina Ramírez,1000003611,4.7026193,-74.0920604,Ac. 24 #86-49
Miguel Ángel Sánchez,1000003696,4.7520465,-74.0917954,Ac. 24 #86-49
Mariana Giraldo,1000003782,4.7129632,-74.1147582,Ac. 24 #86-49
Samuel Andrés Gutiérrez,1000003869,4.6102584,-74.1312677,Ac. 24 #86-49
Camila Restrepo,1000003957,4.7215727,-74.1163706,Ac. 24 #86-49
Oscar Iván Montoya,1000004046,4.6705381,-74.1374495,Ac. 24 #86-49
Daniel Felipe Castro,1000004136,4.6020853,-74.0673789,Ac. 24 #86-49
Karen Vanessa Díaz,1000004227,4.7501548,-74.0662254,Ac. 24 #86-49
Ricardo Alonso Rueda,1000004319,4.6366725,-74.1457184,Ac. 24 #86-49
Melissa González,1000004412,4.6447737,-74.0065101,Ac. 24 #86-49
Hernán Darío Pardo,1000004506,4.6551832,-74.1552268,Ac. 24 #86-49
Valeria Ramírez,1000004601,4.4714407,-74.1083007,Ac. 24 #86-49
José Fernando Parra,1000004697,4.6933262,-74.1670485,Ac. 24 #86-49
Luisa Fernanda Suárez,1000004794,4.6452435,-74.0169704,Ac. 24 #86-49
Martín Alejandro Lozano,1000004892,4.6450623,-74.0669064,Ac. 24 #86-49
Tatiana Jiménez,1000004991,4.7012013,-74.1067942,Ac. 24 #86-49
Pedro Pablo Cifuentes,1000005091,4.5826358,-74.0809976,Ac. 24 #86-49
Laura Vanessa Silva,1000005192,4.6938864,-74.0923712,Ac. 24 #86-49